{
  "type": "FeatureCollection",
  "features": [
    {
      "type": "Feature",
      "properties": {
        "norad_id": 43260,
        "name": "GAOFEN-1 03",
        "group": "resource",
        "lat": -76.13152862709825,
        "lon": 81.10781589855128,
        "alt_km": 646.7894924182438,
        "timestamp": "2025-12-14T07:33:19.135587+00:00",
        "meta_object_name": "GAOFEN-1 03",
        "meta_object_id": "2018-031B",
        "meta_epoch": "2025-12-13T15:38:45.707424",
        "meta_mean_motion": 14.76439364,
        "meta_eccentricity": 0.00019286,
        "meta_inclination": 98.0798,
        "meta_ra_of_asc_node": 45.3184,
        "meta_arg_of_pericenter": 317.9631,
        "meta_mean_anomaly": 42.1431,
        "meta_ephemeris_type": 0,
        "meta_classification_type": "U",
        "meta_norad_cat_id": 43260,
        "meta_element_set_no": 999,
        "meta_rev_at_epoch": 41531,
        "meta_bstar": 0.00020910527,
        "meta_mean_motion_dot": 1.403e-05,
        "meta_mean_motion_ddot": 0,
        "tle_line1": "1 43260U 18031B   25347.65191791  .00001403  00000+0  20911-3 0  9991",
        "tle_line2": "2 43260  98.0798  45.3184 0001928 317.9631  42.1431 14.76439364415319"
      },
      "geometry": {
        "type": "Point",
        "coordinates": [
          81.10781589855128,
          -76.13152862709825
        ]
      }
    },
    {
      "type": "Feature",
      "properties": {
        "norad_id": 43262,
        "name": "GAOFEN-1 04",
        "group": "resource",
        "lat": 50.04215112220866,
        "lon": 36.38807813214515,
        "alt_km": 635.2387590622084,
        "timestamp": "2025-12-14T07:33:19.135597+00:00",
        "meta_object_name": "GAOFEN-1 04",
        "meta_object_id": "2018-031D",
        "meta_epoch": "2025-12-13T16:41:16.418688",
        "meta_mean_motion": 14.76454601,
        "meta_eccentricity": 0.00010404,
        "meta_inclination": 98.0805,
        "meta_ra_of_asc_node": 45.5309,
        "meta_arg_of_pericenter": 56.8588,
        "meta_mean_anomaly": 303.2721,
        "meta_ephemeris_type": 0,
        "meta_classification_type": "U",
        "meta_norad_cat_id": 43262,
        "meta_element_set_no": 999,
        "meta_rev_at_epoch": 41531,
        "meta_bstar": 0.00025020635,
        "meta_mean_motion_dot": 1.689e-05,
        "meta_mean_motion_ddot": 0,
        "tle_line1": "1 43262U 18031D   25347.69532892  .00001689  00000+0  25021-3 0  9991",
        "tle_line2": "2 43262  98.0805  45.5309 0001040  56.8588 303.2721 14.76454601415310"
      },
      "geometry": {
        "type": "Point",
        "coordinates": [
          36.38807813214515,
          50.04215112220866
        ]
      }
    },
    {
      "type": "Feature",
      "properties": {
        "norad_id": 43437,
        "name": "SENTINEL-3B",
        "group": "resource",
        "lat": -62.78607011175553,
        "lon": 70.64829328437403,
        "alt_km": 810.9420314039135,
        "timestamp": "2025-12-14T07:33:19.135609+00:00",
        "meta_object_name": "SENTINEL-3B",
        "meta_object_id": "2018-039A",
        "meta_epoch": "2025-12-13T15:01:26.827680",
        "meta_mean_motion": 14.26734448,
        "meta_eccentricity": 0.00016256,
        "meta_inclination": 98.6269,
        "meta_ra_of_asc_node": 52.7987,
        "meta_arg_of_pericenter": 100.8299,
        "meta_mean_anomaly": 259.3065,
        "meta_ephemeris_type": 0,
        "meta_classification_type": "U",
        "meta_norad_cat_id": 43437,
        "meta_element_set_no": 999,
        "meta_rev_at_epoch": 39766,
        "meta_bstar": 0.00010611124,
        "meta_mean_motion_dot": 2.13e-06,
        "meta_mean_motion_ddot": 0,
        "tle_line1": "1 43437U 18039A   25347.62600495  .00000213  00000+0  10611-3 0  9992",
        "tle_line2": "2 43437  98.6269  52.7987 0001625 100.8299 259.3065 14.26734448397668"
      },
      "geometry": {
        "type": "Point",
        "coordinates": [
          70.64829328437403,
          -62.78607011175553
        ]
      }
    },
    {
      "type": "Feature",
      "properties": {
        "norad_id": 43461,
        "name": "GAOFEN-5 01",
        "group": "resource",
        "lat": 62.95688581448695,
        "lon": 148.20388105523008,
        "alt_km": 686.1882287975577,
        "timestamp": "2025-12-14T07:33:19.135620+00:00",
        "meta_object_name": "GAOFEN-5 01",
        "meta_object_id": "2018-043A",
        "meta_epoch": "2025-12-13T14:35:01.668480",
        "meta_mean_motion": 14.60411084,
        "meta_eccentricity": 8.951e-05,
        "meta_inclination": 98.4327,
        "meta_ra_of_asc_node": 310.59,
        "meta_arg_of_pericenter": 336.2599,
        "meta_mean_anomaly": 23.8559,
        "meta_ephemeris_type": 0,
        "meta_classification_type": "U",
        "meta_norad_cat_id": 43461,
        "meta_element_set_no": 999,
        "meta_rev_at_epoch": 40460,
        "meta_bstar": 0.00015315658,
        "meta_mean_motion_dot": 6.93e-06,
        "meta_mean_motion_ddot": 0,
        "tle_line1": "1 43461U 18043A   25347.60765820  .00000693  00000+0  15316-3 0  9995",
        "tle_line2": "2 43461  98.4327 310.5900 0000895 336.2599  23.8559 14.60411084404605"
      },
      "geometry": {
        "type": "Point",
        "coordinates": [
          148.20388105523008,
          62.95688581448695
        ]
      }
    },
    {
      "type": "Feature",
      "properties": {
        "norad_id": 43484,
        "name": "GAOFEN-6",
        "group": "resource",
        "lat": -22.583245052120258,
        "lon": -130.74112151620662,
        "alt_km": 653.0561883887249,
        "timestamp": "2025-12-14T07:33:19.135631+00:00",
        "meta_object_name": "GAOFEN-6",
        "meta_object_id": "2018-048A",
        "meta_epoch": "2025-12-13T16:00:13.558176",
        "meta_mean_motion": 14.76569744,
        "meta_eccentricity": 0.0013182,
        "meta_inclination": 97.8028,
        "meta_ra_of_asc_node": 51.9022,
        "meta_arg_of_pericenter": 61.0345,
        "meta_mean_anomaly": 299.2185,
        "meta_ephemeris_type": 0,
        "meta_classification_type": "U",
        "meta_norad_cat_id": 43484,
        "meta_element_set_no": 999,
        "meta_rev_at_epoch": 40601,
        "meta_bstar": 0.00021746272,
        "meta_mean_motion_dot": 1.47e-05,
        "meta_mean_motion_ddot": 0,
        "tle_line1": "1 43484U 18048A   25347.66682359  .00001470  00000+0  21746-3 0  9994",
        "tle_line2": "2 43484  97.8028  51.9022 0013182  61.0345 299.2185 14.76569744406012"
      },
      "geometry": {
        "type": "Point",
        "coordinates": [
          -130.74112151620662,
          -22.583245052120258
        ]
      }
    },
    {
      "type": "Feature",
      "properties": {
        "norad_id": 43585,
        "name": "GAOFEN-11 01",
        "group": "resource",
        "lat": 59.765985133417345,
        "lon": 38.78696283790317,
        "alt_km": 414.30678830166653,
        "timestamp": "2025-12-14T07:33:19.135642+00:00",
        "meta_object_name": "GAOFEN-11 01",
        "meta_object_id": "2018-063A",
        "meta_epoch": "2025-12-13T15:47:36.300192",
        "meta_mean_motion": 15.49250042,
        "meta_eccentricity": 0.00043398,
        "meta_inclination": 97.156,
        "meta_ra_of_asc_node": 50.5849,
        "meta_arg_of_pericenter": 309.6059,
        "meta_mean_anomaly": 50.4809,
        "meta_ephemeris_type": 0,
        "meta_classification_type": "U",
        "meta_norad_cat_id": 43585,
        "meta_element_set_no": 999,
        "meta_rev_at_epoch": 41156,
        "meta_bstar": 0.00020979417,
        "meta_mean_motion_dot": 0.00011366,
        "meta_mean_motion_ddot": 0,
        "tle_line1": "1 43585U 18063A   25347.65805903  .00011366  00000+0  20979-3 0  9996",
        "tle_line2": "2 43585  97.1560  50.5849 0004339 309.6059  50.4809 15.49250042411562"
      },
      "geometry": {
        "type": "Point",
        "coordinates": [
          38.78696283790317,
          59.765985133417345
        ]
      }
    },
    {
      "type": "Feature",
      "properties": {
        "norad_id": 43613,
        "name": "ICESAT-2",
        "group": "resource",
        "lat": 37.5778942043519,
        "lon": -120.3820434225313,
        "alt_km": 478.6317542548577,
        "timestamp": "2025-12-14T07:33:19.135653+00:00",
        "meta_object_name": "ICESAT-2",
        "meta_object_id": "2018-070A",
        "meta_epoch": "2025-12-13T15:40:34.936896",
        "meta_mean_motion": 15.28269148,
        "meta_eccentricity": 0.00023887,
        "meta_inclination": 92.0046,
        "meta_ra_of_asc_node": 240.9839,
        "meta_arg_of_pericenter": 139.3567,
        "meta_mean_anomaly": 220.7861,
        "meta_ephemeris_type": 0,
        "meta_classification_type": "U",
        "meta_norad_cat_id": 43613,
        "meta_element_set_no": 999,
        "meta_rev_at_epoch": 40412,
        "meta_bstar": 0.0005789005,
        "meta_mean_motion_dot": 0.00015949,
        "meta_mean_motion_ddot": 0,
        "tle_line1": "1 43613U 18070A   25347.65318214  .00015949  00000+0  57890-3 0  9993",
        "tle_line2": "2 43613  92.0046 240.9839 0002388 139.3567 220.7861 15.28269148404123"
      },
      "geometry": {
        "type": "Point",
        "coordinates": [
          -120.3820434225313,
          37.5778942043519
        ]
      }
    }
  ]
}